{
  "type": "FeatureCollection",
  "features": [
    {
      "type": "Feature",
      "properties": { "name": "BR-101 SC — Palhoça → Tubarão (mock)" },
      "geometry": {
        "type": "LineString",
        "coordinates": [
          [-48.6710, -27.6432],
          [-48.7012, -27.7185],
          [-48.7251, -27.7903],
          [-48.7493, -27.8634],
          [-48.7858, -27.9389],
          [-48.8210, -28.0142],
          [-48.8569, -28.0895],
          [-48.8978, -28.1612],
          [-48.9483, -28.2287],
          [-48.9921, -28.2924],
          [-49.0357, -28.3565],
          [-49.0689, -28.4189]
        ]
      }
    }
  ]
}
